GPS BIIR-2  (PRN 13)    
1 24876C 97035A   23277.69756944 -.00000000  00000-0  00000-0 0  2772
2 24876  55.5947 137.1585 0073858  52.9745  82.3059  2.00564511    19
GPS BIIR-4  (PRN 20)    
1 26360C 00025A   23277.69756944 -.00000000  00000-0  00000-0 0  2775
2 26360  54.4585  59.3586 0041711 200.8831  24.0342  2.00568953    16
GPS BIIR-5  (PRN 22)    
1 26407C 00040A   23277.69756944  .00000000  00000-0  00000-0 0  2773
2 26407  55.1882 254.3915 0154679 291.9857 135.7460  2.00571067    17
GPS BIIR-8  (PRN 16)    
1 27663C 03005A   23277.69756944  .00000000  00000-0  00000-0 0  2772
2 27663  55.2300 254.2020 0132897  44.8691 159.2733  2.00564454    19
GPS BIIR-9  (PRN 21)    
1 27704C 03010A   23277.69756944 -.00000000  00000-0  00000-0 0  2775
2 27704  55.1158   4.1455 0249683 319.4333 104.0437  2.00576431    12
GPS BIIR-11 (PRN 19)    
1 28190C 04009A   23277.69756944  .00000000  00000-0  00000-0 0  2773
2 28190  55.6665 315.2620 0092568 140.0797 220.5387  2.00566612    18
GPS BIIR-13 (PRN 02)    
1 28474C 04045A   23277.69756944 -.00000000  00000-0  00000-0 0  2779
2 28474  55.4432   4.4773 0163018 283.1499 131.9645  2.00555845    14
GPS BIIRM-1 (PRN 17)    
1 28874C 05038A   23277.69756944  .00000000  00000-0  00000-0 0  2775
2 28874  55.7173 312.7149 0140192 280.0009 102.9753  2.00573722    18
GPS BIIRM-2 (PRN 31)    
1 29486C 06042A   23277.69756944  .00000000  00000-0  00000-0 0  2771
2 29486  54.6830 190.4527 0103780  33.1095 251.0750  2.00568020    19
GPS BIIRM-3 (PRN 12)    
1 29601C 06052A   23277.69756944  .00000000  00000-0  00000-0 0  2771
2 29601  55.2520 253.1632 0083719  79.5131 261.4806  2.00551314    14
GPS BIIRM-4 (PRN 15)    
1 32260C 07047A   23277.69756944 -.00000000  00000-0  00000-0 0  2772
2 32260  53.4786 120.8820 0152454  71.3817  43.3859  2.00550389    12
GPS BIIRM-5 (PRN 29)    
1 32384C 07062A   23277.69756944  .00000000  00000-0  00000-0 0  2775
2 32384  55.8497 313.5404 0024638 152.0553  91.9633  2.00560523    19
GPS BIIRM-6 (PRN 07)    
1 32711C 08012A   23277.69756944  .00000000  00000-0  00000-0 0  2775
2 32711  54.4507 189.2767 0177779 236.0323 298.0404  2.00558224    14
GPS BIIRM-8 (PRN 05)    
1 35752C 09043A   23277.69756944 -.00000000  00000-0  00000-0 0  2779
2 35752  55.4597  66.5040 0057942  69.8431 122.4453  2.00556560    19
GPS BIIF-1  (PRN 25)    
1 36585C 10022A   23277.69756944  .00000000  00000-0  00000-0 0  2772
2 36585  54.5521 248.3601 0110333  59.7225 249.8051  2.00563650    13
GPS BIIF-3  (PRN 24)    
1 38833C 12053A   23277.69756944 -.00000000  00000-0  00000-0 0  2777
2 38833  53.5119 183.9525 0143978  52.5489 357.6546  2.00567781    12
GPS BIIF-4  (PRN 27)    
1 39166C 13023A   23277.69756944  .00000000  00000-0  00000-0 0  2774
2 39166  55.3318 308.8984 0114840  41.6166 107.1461  2.00564537    17
GPS BIIF-5  (PRN 30)    
1 39533C 14008A   23277.69756944  .00000000  00000-0  00000-0 0  2776
2 39533  53.5987 189.5143 0067150 215.5714 291.8029  2.00553395    11
GPS BIIF-6  (PRN 06)    
1 39741C 14026A   23277.69756944 -.00000000  00000-0  00000-0 0  2778
2 39741  56.7001   9.8124 0030021 309.7234 354.5774  2.00555122    11
GPS BIIF-7  (PRN 09)    
1 40105C 14045A   23277.69756944 -.00000000  00000-0  00000-0 0  2775
2 40105  54.8239 127.8587 0026906 114.0437 130.8127  2.00549188    14
GPS BIIF-8  (PRN 03)    
1 40294C 14068A   23277.69756944 -.00000000  00000-0  00000-0 0  2779
2 40294  56.2037  69.2694 0049187  62.6290 271.4011  2.00574113    14
GPS BIIF-9  (PRN 26)    
1 40534C 15013A   23277.69756944  .00000000  00000-0  00000-0 0  2776
2 40534  53.4505 245.0314 0081837  25.8428 208.0924  2.00552926    12
GPS BIIF-10 (PRN 08)    
1 40730C 15033A   23277.69756944  .00000000  00000-0  00000-0 0  2776
2 40730  54.8198 307.4977 0086274  13.9829 102.9948  2.00553876    17
GPS BIIF-11 (PRN 10)    
1 41019C 15062A   23277.69756944 -.00000000  00000-0  00000-0 0  2770
2 41019  56.1872  69.1201 0090379 221.2188 217.5534  2.00562441    19
GPS BIIF-12 (PRN 32)    
1 41328C 16007A   23277.69756944 -.00000000  00000-0  00000-0 0  2773
2 41328  55.0274 128.6440 0071803 233.6521 140.2469  2.00574574    10
GPS BIII-1  (PRN 04)    
1 43873C 18109A   23277.69756944 -.00000000  00000-0  00000-0 0  2775
2 43873  55.2026 131.1654 0026221 190.0808  79.1855  2.00570084    19
GPS BIII-2  (PRN 18)    
1 44506C 19056A   23277.69756944 -.00000000  00000-0  00000-0 0  2771
2 44506  55.8254  10.2388 0037883 186.8384 341.4978  2.00566267    10
GPS BIII-3  (PRN 23)    
1 45854C 20041A   23277.69756944 -.00000000  00000-0  00000-0 0  2774
2 45854  55.9089  67.5248 0037337 186.9692 284.5081  2.00562924    19
GPS BIII-4  (PRN 14)    
1 46826C 20078A   23277.69756944  .00000000  00000-0  00000-0 0  2773
2 46826  54.2975 250.8304 0036615 194.8181 252.2967  2.00562964    13
GPS BIII-5  (PRN 11)    
1 48859C 21054A   23277.69756944 -.00000000  00000-0  00000-0 0  2777
2 48859  55.3434  12.0101 0013197 214.6109  55.7035  2.00571957    11
GPS BIII-6  (PRN 28)    
1 55268C 23009A   23277.69756944  .00000000  00000-0  00000-0 0  2770
2 55268  55.0887 187.2245 0004785  89.5170 220.3884  2.00553686    17
